sat14208
1 14208U 83075B   20046.93714534  .00000111  00000-0  10316-4 0  9994
2 14208  97.3859  34.6691 0039184  12.9880 347.2350 15.11055406994228
